IMECE                   
1 56178U 23054A   23132.75984948  .00000630  00000+0  12370-3 0  9990
2 56178  98.2110  28.4595 0009418 121.9227 238.2909 14.66076753  4641
2023-054B               
1 56179U 23054B   23132.90010480  .00009572  00000+0  42957-3 0  9997
2 56179  97.4061  28.2901 0009526 151.4925 273.5705 15.21356855  4811
DEWASAT-2               
1 56180U 23054C   23132.68478418  .00015259  00000+0  67228-3 0  9990
2 56180  97.4116  28.1146 0011396 152.2135 207.9712 15.21851435  4761
KILICSAT                
1 56181U 23054D   23132.95794159  .00014603  00000+0  64402-3 0  9997
2 56181  97.4082  28.3710 0010640 147.7706 268.5474 15.21836835  4818
LEMUR-2-ONREFLECTION    
1 56182U 23054E   23132.68195202  .00022352  00000+0  97508-3 0  9995
2 56182  97.4009  28.0776 0010019 146.2247 213.9629 15.22122768  4776
2023-054F               
1 56183U 23054F   23132.94821057  .00012710  00000+0  56314-3 0  9996
2 56183  97.4034  28.3405 0009627 139.2349 220.9609 15.21719204  4812
SSS-2B                  
1 56184U 23054G   23132.68270947  .00015517  00000+0  68118-3 0  9997
2 56184  97.4140  28.1265 0012152 151.0881 209.1031 15.21964463  4775
BRO-9                   
1 56185U 23054H   23132.90387074  .00006782  00000+0  30081-3 0  9995
2 56185  97.4038  28.3082 0010199 142.9228 349.8503 15.21864888  4804
GHGSAT-C8               
1 56186U 23054J   23132.95814906  .00010850  00000+0  48086-3 0  9995
2 56186  97.4094  28.3770 0010948 146.9968 270.3548 15.21737865  4810
LEMUR-2-SPACEGUS        
1 56187U 23054K   23132.67884174  .00032928  00000+0  14190-2 0  9997
2 56187  97.4014  28.0822 0010236 138.2259 221.9761 15.22455133  4775
CIRBE                   
1 56188U 23054L   23132.54631227  .00018428  00000+0  80038-3 0  9997
2 56188  97.4094  27.9866 0011232 144.4973 215.7013 15.22300561  4752
2023-054M               
1 56189U 23054M   23132.67953187  .00010880  00000+0  47808-3 0  9996
2 56189  97.4107  28.1198 0011598 143.4331 216.7699 15.22024122  4770
NUSAT-36 (ANNIE CANNON) 
1 56190U 23054N   23132.67775766  .00012576  00000+0  54825-3 0  9994
2 56190  97.4041  28.0937 0011077 135.5955 224.6171 15.22261184  4779
HAWK-7A                 
1 56191U 23054P   23132.67330366  .00006240  00000+0  27134-3 0  9992
2 56191  97.4120  28.1434 0012426 141.4696 218.7430 15.22556344  4775
ION SCV-010             
1 56192U 23054Q   23132.67567888  .00010547  00000+0  42656-3 0  9995
2 56192  97.4077  28.1104 0004965 224.5622 135.5217 15.24891119  4775
HAWK-7B                 
1 56193U 23054R   23132.67255200  .00006846  00000+0  29884-3 0  9993
2 56193  97.3978  28.0740 0012226 128.6005 231.6329 15.22386443  4777
2023-054S               
1 56194U 23054S   23132.67284791  .00015518  00000+0  67028-3 0  9999
2 56194  97.4077  28.1173 0012028 137.1000 223.1177 15.22516558  4779
GHOST-1                 
1 56195U 23054T   23132.67503089  .00008870  00000+0  38802-3 0  9995
2 56195  97.4066  28.1067 0012302 133.8198 226.4058 15.22224565  4774
VIGORIDE-6              
1 56196U 23054U   23132.66920685  .00013149  00000+0  56614-3 0  9996
2 56196  97.4069  28.1194 0012859 138.0276 222.1948 15.22655468  4771
GHOST-2                 
1 56197U 23054V   23132.67068312  .00010648  00000+0  46131-3 0  9992
2 56197  97.4062  28.1116 0013153 135.4040 224.8257 15.22493537  4776
UMBRA-06                
1 56198U 23054W   23132.67752884  .00041545  00000+0  23155-2 0  9997
2 56198  97.4037  27.9440 0002571 112.8826 247.2677 15.13458222  4765
TOMORROW-R1             
1 56199U 23054X   23132.66822327  .00013553  00000+0  58256-3 0  9996
2 56199  97.4078  28.1231 0013185 137.2718 222.9546 15.22700278  4773
HAWK-7C                 
1 56200U 23054Y   23132.67234961  .00007207  00000+0  31454-3 0  9991
2 56200  97.4058  28.1076 0013729 132.9944 227.2446 15.22357602  4774
NUSAT-39 (TIKVAH ALPER) 
1 56201U 23054Z   23132.81048382  .00013006  00000+0  55674-3 0  9992
2 56201  97.4070  28.2634 0014079 135.9045 296.6391 15.22839237  4794
NUSAT-38 (MARIA AGNESI) 
1 56202U 23054AA  23132.81256786  .00012978  00000+0  55520-3 0  9999
2 56202  97.4085  28.2730 0014219 135.6025 310.1840 15.22858236  4790
NUSAT-37 (JOAN CLARKE)  
1 56203U 23054AB  23132.81203406  .00012026  00000+0  51307-3 0  9994
2 56203  97.4042  28.2557 0014084 132.4467 313.3073 15.22972089  4792
GHGSAT-C6               
1 56204U 23054AC  23132.88340160  .00011476  00000+0  48952-3 0  9991
2 56204  97.4114  28.3600 0014835 129.8189   0.1840 15.22981121  4800
2023-054AD              
1 56205U 23054AD  23132.65394416  .00018619  00000+0  77776-3 0  9992
2 56205  97.4101  28.1494 0016691 129.8507 230.4201 15.23550926  4773
LEMUR-2-ROMEO-N-LEO     
1 56206U 23054AE  23132.71707326  .00037698  00000+0  15383-2 0  9991
2 56206  97.4011  28.1816 0015250 129.5468 230.7120 15.24211968  4780
2023-054AF              
1 56207U 23054AF  23132.65411893  .00025174  00000+0  10442-2 0  9993
2 56207  97.4140  28.1656 0016261 134.8091 225.4472 15.23732931  4777
2023-054AG              
1 56208U 23054AG  23132.65836519  .00013484  00000+0  57009-3 0  9992
2 56208  97.4003  28.1057 0014842 125.2383 235.0245 15.23240128  4779
GHGSAT-C7               
1 56209U 23054AH  23132.94713611  .00006010  00000+0  25828-3 0  9993
2 56209  97.4076  28.4121 0014894 124.9998   4.0582 15.22939368  4813
CONNECTA T2.1           
1 56210U 23054AJ  23132.87886332  .00008498  00000+0  36168-3 0  9999
2 56210  97.4030  28.3339 0015363 123.9367   5.2964 15.23136299  4805
INSPIRE-SAT 7           
1 56211U 23054AK  23132.78373651  .00021387  00000+0  88683-3 0  9996
2 56211  97.4121  28.2898 0016625 131.9337 228.3320 15.23771725  4795
ROSEYCUBESAT-1          
1 56212U 23054AL  23132.64997922  .00023606  00000+0  97344-3 0  9995
2 56212  97.4128  28.1654 0017110 131.9122 228.3577 15.23929786  4778
2023-054AM              
1 56213U 23054AM  23132.65018598  .00021291  00000+0  87984-3 0  9997
2 56213  97.4046  28.1333 0016397 126.6421 233.6327 15.23891356  4774
LS3C                    
1 56214U 23054AN  23132.97796856  .00021006  00000+0  86793-3 0  9994
2 56214  97.4074  28.4689 0016924 126.8208 233.4585 15.23890454  4822
VCUB1                   
1 56215U 23054AP  23132.95087449  .00021495  00000+0  90463-3 0  9995
2 56215  97.4082  28.4116 0012994 119.7084  10.5705 15.23319304  4731
ELO-3                   
1 56216U 23054AQ  23132.88053713  .00022924  00000+0  10102-2 0  9994
2 56216  97.4068  28.2939 0009541 130.9636 229.2427 15.21776262  4704
KEPLER-20               
1 56217U 23054AR  23132.60868787  .00014984  00000+0  65001-3 0  9996
2 56217  97.4107  28.0601 0012950 139.7407 220.4791 15.22367888  4768
KEPLER-21               
1 56218U 23054AS  23132.74643910  .00008628  00000+0  38274-3 0  9991
2 56218  97.4045  28.1587 0011154 131.8527 228.3663 15.21770532  4785
FENGYUN 3G              
1 56232U 23055A   23132.90602874  .00040182  00000+0  62065-3 0  9996
2 56232  50.0007  59.3347 0004692  34.7592  79.2631 15.53652079  4177
STARLINK-30107          
1 56287U 23056B   23133.00002315 -.00023705  00000+0 -81230-3 0  9992
2 56287  43.0022  65.0463 0001935 255.0401 212.8354 15.29228753  4137
STARLINK-30106          
1 56288U 23056C   23133.00002315 -.00032279  00000+0 -11097-2 0  9992
2 56288  43.0023  65.0432 0001229 275.7599 193.4790 15.29260001  4138
STARLINK-30095          
1 56289U 23056D   23133.00002315  .00631050  00000+0  27186-2 0  9999
2 56289  43.0010  60.3713 0006454 222.1114 348.4767 15.82537620  4183
STARLINK-30103          
1 56290U 23056E   23133.00002315 -.00013133  00000+0 -44456-3 0  9999
2 56290  43.0023  65.0452 0001232 271.6639 196.7825 15.29282002  4137
STARLINK-30113          
1 56291U 23056F   23133.00002315 -.00025130  00000+0 -86101-3 0  9993
2 56291  43.0024  65.0414 0001592 240.8844 229.0613 15.29261731  4133
STARLINK-30098          
1 56292U 23056G   23133.00002315 -.00003728  00000+0 -11960-3 0  9994
2 56292  43.0023  65.0364 0001696 243.0367 229.0197 15.29238944  4134
STARLINK-30090          
1 56293U 23056H   23133.00002315 -.00017446  00000+0 -59435-3 0  9996
2 56293  43.0022  65.0383 0001632 264.9414 206.3877 15.29258868  4130
STARLINK-30049          
1 56294U 23056J   23133.00002315 -.00746412  00000+0 -17766-1 0  9998
2 56294  43.0024  63.7889 0001318 263.0250   3.6603 15.43302357  4143
STARLINK-30083          
1 56295U 23056K   23132.91667824  .00694496  00000+0  28921-2 0  9998
2 56295  43.0011  60.8134 0007051 218.1465 264.2538 15.83100111  1305
STARLINK-30089          
1 56296U 23056L   23132.50001157  .00821480  00000+0  30572-2 0  9995
2 56296  43.0005  63.1154 0007295 222.6270 143.0756 15.85156433  1307
STARLINK-30086          
1 56297U 23056M   23133.00002315 -.00758816  00000+0 -17602-1 0  9991
2 56297  43.0026  63.7559 0001412 259.5902  20.7423 15.44097149  4142
STARLINK-30109          
1 56298U 23056N   23133.00002315 -.00748905  00000+0 -17588-1 0  9993
2 56298  43.0026  63.7728 0001306 266.7980   6.6809 15.43704050  4145
STARLINK-30108          
1 56299U 23056P   23133.00002315  .00137119  00000+0  99412-3 0  9999
2 56299  43.0023  61.6621 0004349 231.5374 180.2097 15.72230331  4167
STARLINK-30104          
1 56300U 23056Q   23133.00002315 -.00019611  00000+0 -66956-3 0  9997
2 56300  43.0019  65.0187 0001154 253.9600 225.9048 15.29254350  4130
STARLINK-30101          
1 56301U 23056R   23133.00002315 -.00003383  00000+0 -10766-3 0  9995
2 56301  43.0021  64.9785 0000477 211.4168 285.1018 15.29245302  4133
STARLINK-30111          
1 56302U 23056S   23133.00002315 -.00759430  00000+0 -17392-1 0  9997
2 56302  43.0025  63.7394 0001430 262.3309  24.9483 15.44473011  4146
STARLINK-30097          
1 56303U 23056T   23133.00002315 -.00758827  00000+0 -17497-1 0  9993
2 56303  43.0024  63.7467 0001369 261.8185  22.4634 15.44272662  4144
